NORAD_CAT_ID,OBJECT_NAME,OBJECT_TYPE,EPOCH,MEAN_MOTION,ECCENTRICITY,INCLINATION,RA_OF_ASC_NODE,ARG_OF_PERICENTER,MEAN_ANOMALY,BSTAR,MEAN_MOTION_DOT,MEAN_MOTION_DDOT,TLE_LINE0,TLE_LINE1,TLE_LINE2,SEMIMAJOR_AXIS,PERIOD,APOGEE,PERIGEE,DECAYED
55743.0,STARLINK-5602,PAYLOAD,2024-04-03 14:55:15,14.98337099,0.0002938,70.0014,222.3503,269.6231,90.4591,0.00013119,1.473e-05,0.0,0 STARLINK-5602,1 55743U 23028C   24094.62170966  .00001473  00000-0  13119-3 0  9998,2 55743  70.0014 222.3503 0002938 269.6231  90.4591 14.98337099 60429,6950.171,96.107,574.078,569.994,0.0
55743.0,STARLINK-5602,PAYLOAD,2024-04-03 18:07:31,14.98337649,0.0002979,70.0015,222.0136,270.1684,89.9133,0.00010229,1.128e-05,0.0,0 STARLINK-5602,1 55743U 23028C   24094.75522841  .00001128  00000-0  10229-3 0  9991,2 55743  70.0015 222.0136 0002979 270.1684  89.9133 14.98337649 60441,6950.169,96.107,574.105,569.964,0.0
55743.0,STARLINK-5602,PAYLOAD,2024-04-04 14:57:16,14.98334953,0.000294,70.0007,219.8245,267.6478,92.4344,2.1931e-05,1.69e-06,0.0,0 STARLINK-5602,1 55743U 23028C   24095.62310883  .00000169  00000-0  21931-4 0  9996,2 55743  70.0007 219.8245 0002940 267.6478  92.4344 14.98334953 60579,6950.178,96.107,574.086,569.999,0.0
55743.0,STARLINK-5602,PAYLOAD,2024-04-04 18:09:32,14.98333811,0.0002927,70.0008,219.4879,266.8427,93.2398,1.5249e-05,8.9e-07,0.0,0 STARLINK-5602,1 55743U 23028C   24095.75662915  .00000089  00000-0  15249-4 0  9992,2 55743  70.0008 219.4879 0002927 266.8427  93.2398 14.98333811 60591,6950.181,96.107,574.08,570.012,0.0
55743.0,STARLINK-5602,PAYLOAD,2024-04-05 14:59:16,14.98337954,0.0002885,70.0007,217.3,267.7769,92.3059,0.00017007,1.937e-05,0.0,0 STARLINK-5602,1 55743U 23028C   24096.62449960  .00001937  00000-0  17007-3 0  9998,2 55743  70.0007 217.3000 0002885 267.7769  92.3059 14.98337954 60726,6950.168,96.106,574.038,570.028,0.0
55743.0,STARLINK-5602,PAYLOAD,2024-04-05 18:11:32,14.98340744,0.0003048,70.0005,216.9634,268.3113,91.7696,0.0001628,1.851e-05,0.0,0 STARLINK-5602,1 55743U 23028C   24096.75801745  .00001851  00000-0  16280-3 0  9992,2 55743  70.0005 216.9634 0003048 268.3113  91.7696 14.98340744 60747,6950.16,96.106,574.143,569.906,0.0
55743.0,STARLINK-5602,PAYLOAD,2024-04-06 08:36:46,14.98316216,0.0003066,70.0006,215.4479,265.1433,94.9376,0.00027372,3.173e-05,0.0,0 STARLINK-5602,1 55743U 23028C   24097.35887026  .00003173  00000-0  27372-3 0  9998,2 55743  70.0006 215.4479 0003066 265.1433  94.9376 14.98316216 60836,6950.236,96.108,574.231,569.97,0.0
55743.0,STARLINK-5602,PAYLOAD,2024-04-06 18:13:34,14.98328971,0.0002842,70.0011,214.4386,265.509,94.5744,7.3108e-05,7.79e-06,0.0,0 STARLINK-5602,1 55743U 23028C   24097.75942656  .00000779  00000-0  73108-4 0  9991,2 55743  70.0011 214.4386 0002842 265.5090  94.5744 14.98328971 60894,6950.196,96.107,574.036,570.086,0.0
55743.0,STARLINK-5602,PAYLOAD,2024-04-07 13:27:11,14.98330006,0.0002789,70.0015,212.4195,269.6181,90.4658,-4.1651e-05,-5.9e-06,0.0,0 STARLINK-5602,1 55743U 23028C   24098.56054962 -.00000590  00000-0 -41651-4 0  9996,2 55743  70.0015 212.4195 0002789 269.6181  90.4658 14.98330006 61016,6950.193,96.107,573.996,570.119,0.0
55743.0,STARLINK-5602,PAYLOAD,2024-04-08 00:40:07,14.98345831,0.0002761,70.001,211.2413,276.1849,83.8996,-0.00034704,-4.233e-05,0.0,0 STARLINK-5602,1 55743U 23028C   24099.02786429 -.00004233  00000-0 -34704-3 0  9996,2 55743  70.0010 211.2413 0002761 276.1849  83.8996 14.98345831 61085,6950.144,96.106,573.928,570.09,0.0
55743.0,STARLINK-5602,PAYLOAD,2024-04-08 13:29:11,14.98334563,0.0002937,70.0009,209.8951,268.4317,91.6505,0.00014131,1.594e-05,0.0,0 STARLINK-5602,1 55743U 23028C   24099.56194348  .00001594  00000-0  14131-3 0  9995,2 55743  70.0009 209.8951 0002937 268.4317  91.6505 14.98334563 61164,6950.179,96.107,574.085,570.003,0.0
55743.0,STARLINK-5602,PAYLOAD,2024-04-09 00:42:07,14.98369542,0.0002811,70.0005,208.7166,270.4058,89.6778,-0.00049067,-5.949e-05,0.0,0 STARLINK-5602,1 55743U 23028C   24100.02925380 -.00005949  00000-0 -49067-3 0  9993,2 55743  70.0005 208.7166 0002811 270.4058  89.6778 14.98369542 61234,6950.071,96.104,573.889,569.982,0.0
55743.0,STARLINK-5602,PAYLOAD,2024-04-09 10:18:56,14.98329684,0.0003011,70.0006,207.7069,268.5027,91.5787,0.00016086,1.827e-05,0.0,0 STARLINK-5602,1 55743U 23028C   24100.42982611  .00001827  00000-0  16086-3 0  9991,2 55743  70.0006 207.7069 0003011 268.5027  91.5787 14.98329684 61294,6950.194,96.107,574.152,569.966,0.0
55743.0,STARLINK-5602,PAYLOAD,2024-04-09 16:43:29,14.98334082,0.000305,69.9994,207.0324,270.279,89.8019,0.00014817,1.676e-05,0.0,0 STARLINK-5602,1 55743U 23028C   24100.69686358  .00001676  00000-0  14817-3 0  9991,2 55743  69.9994 207.0324 0003050 270.2790  89.8019 14.98334082 61335,6950.18,96.107,574.165,569.925,0.0
55743.0,STARLINK-5602,PAYLOAD,2024-04-10 13:33:13,14.98341178,0.0003036,69.9998,204.845,271.2208,88.8603,6.762e-05,7.14e-06,0.0,0 STARLINK-5602,1 55743U 23028C   24101.56473770  .00000714  00000-0  67620-4 0  9993,2 55743  69.9998 204.8450 0003036 271.2208  88.8603 14.98341178 61469,6950.158,96.106,574.133,569.913,0.0
55743.0,STARLINK-5602,PAYLOAD,2024-04-11 13:35:14,14.98331988,0.0003138,70.0001,202.32,270.0077,90.0723,4.8792e-06,-3.5e-07,0.0,0 STARLINK-5602,1 55743U 23028C   24102.56614263 -.00000035  00000-0  48792-5 0  9995,2 55743  70.0001 202.3200 0003138 270.0077  90.0723 14.98331988 61610,6950.187,96.107,574.233,569.871,0.0
55743.0,STARLINK-5602,PAYLOAD,2024-04-11 16:47:30,14.98332873,0.0003159,70.0004,201.9835,270.2075,89.8722,9.6881e-06,2.3e-07,0.0,0 STARLINK-5602,1 55743U 23028C   24102.69966168  .00000023  00000-0  96881-5 0  9991,2 55743  70.0004 201.9835 0003159 270.2075  89.8722 14.98332873 61636,6950.184,96.107,574.245,569.853,0.0
55743.0,STARLINK-5602,PAYLOAD,2024-04-12 13:37:15,14.98332497,0.0003117,70.0008,199.7958,269.91,90.1702,1.6569e-05,1.05e-06,0.0,0 STARLINK-5602,1 55743U 23028C   24103.56754116  .00000105  00000-0  16569-4 0  9991,2 55743  70.0008 199.7958 0003117 269.9100  90.1702 14.98332497 61767,6950.185,96.107,574.217,569.884,0.0
55743.0,STARLINK-5602,PAYLOAD,2024-04-12 15:13:23,14.98335465,0.0003049,70.0009,199.6276,269.5498,90.5312,4.7463e-05,4.73e-06,0.0,0 STARLINK-5602,1 55743U 23028C   24103.63429822  .00000473  00000-0  47463-4 0  9997,2 55743  70.0009 199.6276 0003049 269.5498  90.5312 14.98335465 61770,6950.176,96.107,574.16,569.922,0.0
55743.0,STARLINK-5602,PAYLOAD,2024-04-13 12:03:08,14.98327365,0.0002941,70.0012,197.4403,267.6052,92.477,5.7972e-05,5.99e-06,0.0,0 STARLINK-5602,1 55743U 23028C   24104.50218350  .00000599  00000-0  57972-4 0  9991,2 55743  70.0012 197.4403 0002941 267.6052  92.4770 14.98327365 61901,6950.201,96.107,574.11,570.022,0.0
55743.0,STARLINK-5602,PAYLOAD,2024-04-13 13:39:16,14.98328237,0.0002917,70.0013,197.2721,267.1799,92.9027,6.7589e-05,7.14e-06,0.0,0 STARLINK-5602,1 55743U 23028C   24104.56894280  .00000714  00000-0  67589-4 0  9993,2 55743  70.0013 197.2721 0002917 267.1799  92.9027 14.98328237 61919,6950.198,96.107,574.091,570.036,0.0
55743.0,STARLINK-5602,PAYLOAD,2024-04-13 15:15:24,14.98329164,0.0002905,70.0013,197.1039,266.9285,93.1542,7.7247e-05,8.29e-06,0.0,0 STARLINK-5602,1 55743U 23028C   24104.63570203  .00000829  00000-0  77247-4 0  9996,2 55743  70.0013 197.1039 0002905 266.9285  93.1542 14.98329164 61920,6950.195,96.107,574.08,570.041,0.0
55743.0,STARLINK-5602,PAYLOAD,2024-04-14 12:05:09,14.98328883,0.0002719,70.0018,194.916,261.3498,98.7353,2.3307e-05,1.85e-06,0.0,0 STARLINK-5602,1 55743U 23028C   24105.50358484  .00000185  00000-0  23307-4 0  9991,2 55743  70.0018 194.9160 0002719 261.3498  98.7353 14.98328883 62056,6950.196,96.107,573.951,570.172,0.0
55743.0,STARLINK-5602,PAYLOAD,2024-04-14 15:17:25,14.98329145,0.000272,70.0018,194.5794,261.9114,98.1737,2.4182e-05,1.96e-06,0.0,0 STARLINK-5602,1 55743U 23028C   24105.63710475  .00000196  00000-0  24182-4 0  9991,2 55743  70.0018 194.5794 0002720 261.9114  98.1737 14.98329145 62072,6950.196,96.107,573.951,570.17,0.0
55743.0,STARLINK-5602,PAYLOAD,2024-04-15 12:07:10,14.98333439,0.0002569,70.0024,192.3924,254.609,105.4785,0.00014589,1.648e-05,0.0,0 STARLINK-5602,1 55743U 23028C   24106.50497907  .00001648  00000-0  14589-3 0  9992,2 55743  70.0024 192.3924 0002569 254.6090 105.4785 14.98333439 62204,6950.182,96.107,573.833,570.262,0.0
55743.0,STARLINK-5602,PAYLOAD,2024-04-15 13:43:18,14.98334424,0.0002454,70.0031,192.2251,243.9412,116.1495,0.00016001,1.817e-05,0.0,0 STARLINK-5602,1 55743U 23028C   24106.57173709  .00001817  00000-0  16001-3 0  9999,2 55743  70.0031 192.2251 0002454 243.9412 116.1495 14.98334424 62219,6950.179,96.107,573.75,570.339,0.0
55743.0,STARLINK-5602,PAYLOAD,2024-04-15 23:20:06,14.98326658,0.0002629,70.002,191.2116,268.4953,91.5905,0.00021956,2.527e-05,0.0,0 STARLINK-5602,1 55743U 23028C   24106.97230289  .00002527  00000-0  21956-3 0  9994,2 55743  70.0020 191.2116 0002629 268.4953  91.5905 14.98326658 62270,6950.203,96.107,573.895,570.241,0.0
55743.0,STARLINK-5602,PAYLOAD,2024-04-16 12:09:10,14.98339267,0.0002871,70.0007,189.8654,270.024,90.059,0.00015996,1.817e-05,0.0,0 STARLINK-5602,1 55743U 23028C   24107.50637441  .00001817  00000-0  15996-3 0  9993,2 55743  70.0007 189.8654 0002871 270.0240  90.0590 14.98339267 62355,6950.164,96.106,574.025,570.034,0.0
55743.0,STARLINK-5602,PAYLOAD,2024-04-16 13:45:18,14.98340436,0.000285,70.0007,189.697,269.3759,90.7074,0.00016838,1.917e-05,0.0,0 STARLINK-5602,1 55743U 23028C   24107.57313332  .00001917  00000-0  16838-3 0  9997,2 55743  70.0007 189.6970 0002850 269.3759  90.7074 14.98340436 62362,6950.161,96.106,574.006,570.045,0.0
55743.0,STARLINK-5602,PAYLOAD,2024-04-16 15:21:26,14.98340897,0.0002721,70.0012,189.5286,267.4339,92.6509,0.00022008,2.535e-05,0.0,0 STARLINK-5602,1 55743U 23028C   24107.63989210  .00002535  00000-0  22008-3 0  9991,2 55743  70.0012 189.5286 0002721 267.4339  92.6509 14.98340897 62373,6950.159,96.106,573.915,570.133,0.0
